[{"OBJECT_NAME":"RAPTOR4","OBJECT_ID":"2024-028B","EPOCH":"2026-03-09T13:25:37.970400","MEAN_MOTION":13.70164328,"ECCENTRICITY":0.0014524,"INCLINATION":39.9901,"RA_OF_ASC_NODE":141.9922,"ARG_OF_PERICENTER":23.3417,"MEAN_ANOMALY":336.7986,"EPHEMERIS_TYPE":0,"CLASSIFICATION_TYPE":"U","NORAD_CAT_ID":58956,"ELEMENT_SET_NO":999,"REV_AT_EPOCH":10338,"BSTAR":6.0683e-5,"MEAN_MOTION_DOT":-2.4e-7,"MEAN_MOTION_DDOT":0},{"OBJECT_NAME":"SL-8 R\/B","OBJECT_ID":"1983-048B","EPOCH":"2026-03-09T22:33:00.084384","MEAN_MOTION":13.76594115,"ECCENTRICITY":0.00332689,"INCLINATION":82.9397,"RA_OF_ASC_NODE":243.2367,"ARG_OF_PERICENTER":189.1857,"MEAN_ANOMALY":170.8696,"EPHEMERIS_TYPE":0,"CLASSIFICATION_TYPE":"U","NORAD_CAT_ID":14085,"ELEMENT_SET_NO":999,"REV_AT_EPOCH":14889,"BSTAR":-9.0712297e-5,"MEAN_MOTION_DOT":-7.4e-7,"MEAN_MOTION_DDOT":0}]
